KUIPER-00178            
1 67767U 26030D   26064.73061662  .00025706  00000+0  74542-3 0  9997
2 67767  51.8836 238.2871 0006183  34.8375 325.3015 15.35354027  4485
KUIPER-00180            
1 67768U 26030E   26064.69662605  .00011504  00000+0  37583-3 0  9992
2 67768  51.8807 238.7941 0014335  56.8841 303.3517 15.32112846  4477
KUIPER-00197            
1 67769U 26030F   26064.71866737  .00032529  00000+0  91418-3 0  9995
2 67769  51.8834 238.2102 0001390  50.0137 310.0971 15.36224153  4482
KUIPER-00198            
1 67770U 26030G   26064.78867438  .00031493  00000+0  89549-3 0  9994
2 67770  51.8813 237.9228 0003403  36.5012 323.6206 15.35870690  4498
KUIPER-00199            
1 67771U 26030H   26064.74573259  .00025269  00000+0  75983-3 0  9997
2 67771  51.8813 238.3778 0010385  49.7237 310.4654 15.34187224  4489
KUIPER-00200            
1 67772U 26030J   26064.77525282 -.00027453  00000+0 -74354-3 0  9994
2 67772  51.8805 237.8385 0001136 208.7447 151.3477 15.36809588  4495
KUIPER-00203            
1 67773U 26030K   26064.66667824 -.01369135  00000+0 -62835-1 0  9998
2 67773  51.8820 239.0285 0011541  51.4088  78.6727 15.23098075  3036
KUIPER-00205            
1 67774U 26030L   26064.71941756  .00031667  00000+0  89064-3 0  9992
2 67774  51.8812 238.2104 0003012  10.1843 349.9204 15.36210795  4487
KUIPER-00208            
1 67775U 26030M   26064.75905675  .00037381  00000+0  11804-2 0  9992
2 67775  51.8832 238.4719 0014598  49.5668 310.6588 15.32378848  4486
KUIPER-00209            
1 67776U 26030N   26064.63417175 -.00060155  00000+0 -20050-2 0  9993
2 67776  51.8818 239.1302 0013085  56.1169 304.1058 15.30557280  4462
KUIPER-00213            
1 67777U 26030P   26064.75969397  .00022891  00000+0  72412-3 0  9998
2 67777  51.8805 238.4668 0014887  53.4630 306.7723 15.32579732  4487
KUIPER-00214            
1 67778U 26030Q   26064.71295189  .00025081  00000+0  70055-3 0  9991
2 67778  51.8838 238.1750 0000473 209.7013 150.3946 15.36554804  4487
KUIPER-00215            
1 67779U 26030R   26064.74410568  .00024849  00000+0  74525-3 0  9992
2 67779  51.8844 238.3760 0010059  49.1057 311.0799 15.34282976  4481
KUIPER-00218            
1 67780U 26030S   26064.73438055  .00034166  00000+0  99689-3 0  9995
2 67780  51.8838 238.3119 0006696  39.6512 320.4963 15.35006233  4484
KUIPER-00220            
1 67781U 26030T   26064.74057620  .00024547  00000+0  72982-3 0  9991
2 67781  51.8815 238.3450 0008351  44.9688 315.1973 15.34579695  4489
KUIPER-00222            
1 67782U 26030U   26064.69814470  .00012303  00000+0  39689-3 0  9994
2 67782  51.8796 238.8016 0017132  51.8883 308.3643 15.32411423  4471
KUIPER-00223            
1 67783U 26030V   26064.74746830 -.00003315  00000+0 -87492-4 0  9996
2 67783  51.8830 238.3941 0012219  48.0639 312.1386 15.34030274  4482
